CCSDS_OMM_VERS = 2.0
CREATION_DATE  = 
ORIGINATOR     = 

OBJECT_NAME    = COSMOS 1933
OBJECT_ID      = 1988-020A
CENTER_NAME    = EARTH
REF_FRAME      = TEME
TIME_SYSTEM    = UTC
MEAN_ELEMENT_THEORY = SGP/SGP4

EPOCH          = 2026-03-03T12:39:52.112736
MEAN_MOTION    = 15.17917348
ECCENTRICITY   = .0003381
INCLINATION    = 82.5095
RA_OF_ASC_NODE = 257.0105
ARG_OF_PERICENTER = 205.7954
MEAN_ANOMALY   = 154.3112

EPHEMERIS_TYPE = 0
CLASSIFICATION_TYPE = U
NORAD_CAT_ID   = 18958
ELEMENT_SET_NO = 999
REV_AT_EPOCH   = 4929
BSTAR          = .25799E-3
MEAN_MOTION_DOT = .5261E-4
MEAN_MOTION_DDOT = 0

CCSDS_OMM_VERS = 2.0
CREATION_DATE  = 
ORIGINATOR     = 

OBJECT_NAME    = SL-3 R/B
OBJECT_ID      = 1988-032B
CENTER_NAME    = EARTH
REF_FRAME      = TEME
TIME_SYSTEM    = UTC
MEAN_ELEMENT_THEORY = SGP/SGP4

EPOCH          = 2026-03-03T17:47:34.170144
MEAN_MOTION    = 15.19823414
ECCENTRICITY   = .0024096
INCLINATION    = 97.5180
RA_OF_ASC_NODE = 46.0136
ARG_OF_PERICENTER = 253.8032
MEAN_ANOMALY   = 106.0551

EPHEMERIS_TYPE = 0
CLASSIFICATION_TYPE = U
NORAD_CAT_ID   = 19046
ELEMENT_SET_NO = 999
REV_AT_EPOCH   = 5120
BSTAR          = .33954E-3
MEAN_MOTION_DOT = .7262E-4
MEAN_MOTION_DDOT = 0

CCSDS_OMM_VERS = 2.0
CREATION_DATE  = 
ORIGINATOR     = 

OBJECT_NAME    = SL-16 R/B
OBJECT_ID      = 1988-039B
CENTER_NAME    = EARTH
REF_FRAME      = TEME
TIME_SYSTEM    = UTC
MEAN_ELEMENT_THEORY = SGP/SGP4

EPOCH          = 2026-03-03T11:56:44.899296
MEAN_MOTION    = 14.19615601
ECCENTRICITY   = .00224123
INCLINATION    = 71.0130
RA_OF_ASC_NODE = 81.6418
ARG_OF_PERICENTER = 343.4793
MEAN_ANOMALY   = 16.5599

EPHEMERIS_TYPE = 0
CLASSIFICATION_TYPE = U
NORAD_CAT_ID   = 19120
ELEMENT_SET_NO = 999
REV_AT_EPOCH   = 95750
BSTAR          = .60980234E-4
MEAN_MOTION_DOT = .81E-6
MEAN_MOTION_DDOT = 0

CCSDS_OMM_VERS = 2.0
CREATION_DATE  = 
ORIGINATOR     = 

OBJECT_NAME    = COSMOS 1953
OBJECT_ID      = 1988-050A
CENTER_NAME    = EARTH
REF_FRAME      = TEME
TIME_SYSTEM    = UTC
MEAN_ELEMENT_THEORY = SGP/SGP4

EPOCH          = 2026-03-03T17:36:20.454912
MEAN_MOTION    = 15.28394735
ECCENTRICITY   = .0012197
INCLINATION    = 82.5118
RA_OF_ASC_NODE = 164.2354
ARG_OF_PERICENTER = 141.9070
MEAN_ANOMALY   = 218.3034

EPHEMERIS_TYPE = 0
CLASSIFICATION_TYPE = U
NORAD_CAT_ID   = 19210
ELEMENT_SET_NO = 999
REV_AT_EPOCH   = 3687
BSTAR          = .40539E-3
MEAN_MOTION_DOT = .11265E-3
MEAN_MOTION_DDOT = 0

CCSDS_OMM_VERS = 2.0
CREATION_DATE  = 
ORIGINATOR     = 

OBJECT_NAME    = SL-8 R/B
OBJECT_ID      = 1988-053B
CENTER_NAME    = EARTH
REF_FRAME      = TEME
TIME_SYSTEM    = UTC
MEAN_ELEMENT_THEORY = SGP/SGP4

EPOCH          = 2026-03-03T14:49:23.928384
MEAN_MOTION    = 14.38911518
ECCENTRICITY   = .002129
INCLINATION    = 74.0469
RA_OF_ASC_NODE = 123.6591
ARG_OF_PERICENTER = 303.8485
MEAN_ANOMALY   = 168.0525

EPHEMERIS_TYPE = 0
CLASSIFICATION_TYPE = U
NORAD_CAT_ID   = 19257
ELEMENT_SET_NO = 999
REV_AT_EPOCH   = 97572
BSTAR          = .11675E-3
MEAN_MOTION_DOT = .334E-5
MEAN_MOTION_DDOT = 0

CCSDS_OMM_VERS = 2.0
CREATION_DATE  = 
ORIGINATOR     = 

OBJECT_NAME    = COSMOS 1975
OBJECT_ID      = 1988-093A
CENTER_NAME    = EARTH
REF_FRAME      = TEME
TIME_SYSTEM    = UTC
MEAN_ELEMENT_THEORY = SGP/SGP4

EPOCH          = 2026-03-03T15:13:47.495136
MEAN_MOTION    = 15.27960127
ECCENTRICITY   = .0011617
INCLINATION    = 82.5198
RA_OF_ASC_NODE = 123.7633
ARG_OF_PERICENTER = 184.2896
MEAN_ANOMALY   = 175.8246

EPHEMERIS_TYPE = 0
CLASSIFICATION_TYPE = U
NORAD_CAT_ID   = 19573
ELEMENT_SET_NO = 999
REV_AT_EPOCH   = 1848
BSTAR          = .37065E-3
MEAN_MOTION_DOT = .10163E-3
MEAN_MOTION_DDOT = 0

CCSDS_OMM_VERS = 2.0
CREATION_DATE  = 
ORIGINATOR     = 

OBJECT_NAME    = SL-14 R/B
OBJECT_ID      = 1988-093B
CENTER_NAME    = EARTH
REF_FRAME      = TEME
TIME_SYSTEM    = UTC
MEAN_ELEMENT_THEORY = SGP/SGP4

EPOCH          = 2026-03-03T11:26:45.133728
MEAN_MOTION    = 14.85647444
ECCENTRICITY   = .00221173
INCLINATION    = 82.5293
RA_OF_ASC_NODE = 47.8765
ARG_OF_PERICENTER = 60.9018
MEAN_ANOMALY   = 59.3481

EPHEMERIS_TYPE = 0
CLASSIFICATION_TYPE = U
NORAD_CAT_ID   = 19574
ELEMENT_SET_NO = 999
REV_AT_EPOCH   = 9
BSTAR          = .8365477E-4
MEAN_MOTION_DOT = .752E-5
MEAN_MOTION_DDOT = 0

CCSDS_OMM_VERS = 2.0
CREATION_DATE  = 
ORIGINATOR     = 

OBJECT_NAME    = SL-16 R/B
OBJECT_ID      = 1988-102B
CENTER_NAME    = EARTH
REF_FRAME      = TEME
TIME_SYSTEM    = UTC
MEAN_ELEMENT_THEORY = SGP/SGP4

EPOCH          = 2026-03-03T16:32:13.729056
MEAN_MOTION    = 14.16149412
ECCENTRICITY   = .0013579
INCLINATION    = 71.0000
RA_OF_ASC_NODE = 164.1221
ARG_OF_PERICENTER = 10.7276
MEAN_ANOMALY   = 349.4134

EPHEMERIS_TYPE = 0
CLASSIFICATION_TYPE = U
NORAD_CAT_ID   = 19650
ELEMENT_SET_NO = 999
REV_AT_EPOCH   = 92604
BSTAR          = .16652E-4
MEAN_MOTION_DOT = -.15E-6
MEAN_MOTION_DDOT = 0

CCSDS_OMM_VERS = 2.0
CREATION_DATE  = 
ORIGINATOR     = 

OBJECT_NAME    = INTERCOSMOS 24
OBJECT_ID      = 1989-080A
CENTER_NAME    = EARTH
REF_FRAME      = TEME
TIME_SYSTEM    = UTC
MEAN_ELEMENT_THEORY = SGP/SGP4

EPOCH          = 2026-03-03T14:34:13.100448
MEAN_MOTION    = 12.59546815
ECCENTRICITY   = .1186833
INCLINATION    = 82.6033
RA_OF_ASC_NODE = 108.3653
ARG_OF_PERICENTER = 306.9522
MEAN_ANOMALY   = 42.8481

EPHEMERIS_TYPE = 0
CLASSIFICATION_TYPE = U
NORAD_CAT_ID   = 20261
ELEMENT_SET_NO = 999
REV_AT_EPOCH   = 66603
BSTAR          = .24957E-3
MEAN_MOTION_DOT = .84E-5
MEAN_MOTION_DDOT = 0

CCSDS_OMM_VERS = 2.0
CREATION_DATE  = 
ORIGINATOR     = 

OBJECT_NAME    = SL-14 R/B
OBJECT_ID      = 1989-080C
CENTER_NAME    = EARTH
REF_FRAME      = TEME
TIME_SYSTEM    = UTC
MEAN_ELEMENT_THEORY = SGP/SGP4

EPOCH          = 2026-03-03T17:08:41.435808
MEAN_MOTION    = 12.50484712
ECCENTRICITY   = .1230342
INCLINATION    = 82.5971
RA_OF_ASC_NODE = 177.0209
ARG_OF_PERICENTER = 198.4041
MEAN_ANOMALY   = 156.8533

EPHEMERIS_TYPE = 0
CLASSIFICATION_TYPE = U
NORAD_CAT_ID   = 20262
ELEMENT_SET_NO = 999
REV_AT_EPOCH   = 65940
BSTAR          = .23977E-3
MEAN_MOTION_DOT = .805E-5
MEAN_MOTION_DDOT = 0

CCSDS_OMM_VERS = 2.0
CREATION_DATE  = 
ORIGINATOR     = 

OBJECT_NAME    = DELTA 1 R/B
OBJECT_ID      = 1989-089B
CENTER_NAME    = EARTH
REF_FRAME      = TEME
TIME_SYSTEM    = UTC
MEAN_ELEMENT_THEORY = SGP/SGP4

EPOCH          = 2026-03-03T13:13:19.932096
MEAN_MOTION    = 14.50657398
ECCENTRICITY   = .007009
INCLINATION    = 97.0709
RA_OF_ASC_NODE = 270.9659
ARG_OF_PERICENTER = 141.0935
MEAN_ANOMALY   = 219.5338

EPHEMERIS_TYPE = 0
CLASSIFICATION_TYPE = U
NORAD_CAT_ID   = 20323
ELEMENT_SET_NO = 999
REV_AT_EPOCH   = 89484
BSTAR          = .1278E-3
MEAN_MOTION_DOT = .483E-5
MEAN_MOTION_DDOT = 0

CCSDS_OMM_VERS = 2.0
CREATION_DATE  = 
ORIGINATOR     = 

OBJECT_NAME    = ARIANE 40 R/B
OBJECT_ID      = 1990-005H
CENTER_NAME    = EARTH
REF_FRAME      = TEME
TIME_SYSTEM    = UTC
MEAN_ELEMENT_THEORY = SGP/SGP4

EPOCH          = 2026-03-03T16:45:33.477696
MEAN_MOTION    = 14.39865829
ECCENTRICITY   = .0009484
INCLINATION    = 98.3096
RA_OF_ASC_NODE = 123.5380
ARG_OF_PERICENTER = 217.1526
MEAN_ANOMALY   = 142.9007

EPHEMERIS_TYPE = 0
CLASSIFICATION_TYPE = U
NORAD_CAT_ID   = 20443
ELEMENT_SET_NO = 999
REV_AT_EPOCH   = 89194
BSTAR          = .1269E-3
MEAN_MOTION_DOT = .356E-5
MEAN_MOTION_DDOT = 0

